[{"OBJECT_NAME":"STARLINK-5344","OBJECT_ID":"2023-015AX","EPOCH":"2026-03-09T22:00:01.999584","MEAN_MOTION":15.10994868,"ECCENTRICITY":0.00016686,"INCLINATION":42.9995,"RA_OF_ASC_NODE":337.1804,"ARG_OF_PERICENTER":251.7021,"MEAN_ANOMALY":145.4845,"EPHEMERIS_TYPE":0,"CLASSIFICATION_TYPE":"U","NORAD_CAT_ID":55494,"ELEMENT_SET_NO":999,"REV_AT_EPOCH":577,"BSTAR":0.00071850787,"MEAN_MOTION_DOT":0.00012008,"MEAN_MOTION_DDOT":0},{"OBJECT_NAME":"PIESAT A","OBJECT_ID":"2023-047A","EPOCH":"2026-03-09T13:45:37.273248","MEAN_MOTION":15.14302818,"ECCENTRICITY":0.0002367,"INCLINATION":97.5034,"RA_OF_ASC_NODE":257.1452,"ARG_OF_PERICENTER":89.923,"MEAN_ANOMALY":270.2273,"EPHEMERIS_TYPE":0,"CLASSIFICATION_TYPE":"U","NORAD_CAT_ID":56153,"ELEMENT_SET_NO":999,"REV_AT_EPOCH":16272,"BSTAR":0.00032318,"MEAN_MOTION_DOT":5.852e-5,"MEAN_MOTION_DDOT":0}]
